start=new Date('2022-03-21T00:00:00.000Z').valueOf();
sats=[{"CENTER_NAME":"EARTH","ELEMENT_SET_NO":"999","EPHEMERIS_TYPE":"0","OBJECT_ID":"2021-021W","TLE_LINE2":"2 47880  53.0570 310.1938 0002302  47.6095 312.5088 15.06435521 57520","FILE":"3367488","ECCENTRICITY":"0.00023020","OBJECT_NAME":"STARLINK-2337","DECAY_DATE":null,"MEAN_ANOMALY":"312.5088","INCLINATION":"53.0570","CLASSIFICATION_TYPE":"U","ARG_OF_PERICENTER":"47.6095","TLE_LINE1":"1 47880U 21021W   22079.84855686 -.00007390  00000-0 -47719-3 0  9995","PERIAPSIS":"545.511","APOAPSIS":"548.699","MEAN_MOTION_DDOT":"0.0000000000000","MEAN_MOTION":"15.06435521","NORAD_CAT_ID":"47880","OBJECT_TYPE":"PAYLOAD","BSTAR":"-0.00047719000000","SEMIMAJOR_AXIS":"6925.240","COUNTRY_CODE":"US","REV_AT_EPOCH":"5752","MEAN_ELEMENT_THEORY":"SGP4","RA_OF_ASC_NODE":"310.1938","REF_FRAME":"TEME","LAUNCH_DATE":"2021-03-14","SITE":"AFETR","TIME_SYSTEM":"UTC","GP_ID":"199266475","RCS_SIZE":"LARGE","EPOCH":"2022-03-20T20:21:55.312704","MEAN_MOTION_DOT":"-0.00007390","PERIOD":"95.590"},{"SEMIMAJOR_AXIS":"6925.325","COUNTRY_CODE":"US","REF_FRAME":"TEME","MEAN_ELEMENT_THEORY":"SGP4","RA_OF_ASC_NODE":"310.0999","REV_AT_EPOCH":"5749","LAUNCH_DATE":"2021-03-14","GP_ID":"199266725","SITE":"AFETR","TIME_SYSTEM":"UTC","MEAN_MOTION_DOT":"-0.00000077","EPOCH":"2022-03-20T20:59:05.206848","RCS_SIZE":"LARGE","PERIOD":"95.592","CENTER_NAME":"EARTH","OBJECT_ID":"2021-021X","EPHEMERIS_TYPE":"0","ELEMENT_SET_NO":"999","ECCENTRICITY":"0.00014230","FILE":"3367488","TLE_LINE2":"2 47881  53.0561 310.0999 0001423  73.6730 286.4416 15.06407715 57499","MEAN_ANOMALY":"286.4416","INCLINATION":"53.0561","DECAY_DATE":null,"OBJECT_NAME":"STARLINK-2339","CLASSIFICATION_TYPE":"U","APOAPSIS":"548.175","PERIAPSIS":"546.204","TLE_LINE1":"1 47881U 21021X   22079.87436582 -.00000077  00000-0  13724-4 0  9993","ARG_OF_PERICENTER":"73.6730","MEAN_MOTION":"15.06407715","NORAD_CAT_ID":"47881","MEAN_MOTION_DDOT":"0.0000000000000","BSTAR":"0.00001372400000","OBJECT_TYPE":"PAYLOAD"},{"EPOCH":"2022-03-20T20:23:15.548064","MEAN_MOTION_DOT":"-0.00000755","RCS_SIZE":"LARGE","PERIOD":"95.592","LAUNCH_DATE":"2021-03-14","GP_ID":"199267477","TIME_SYSTEM":"UTC","SITE":"AFETR","COUNTRY_CODE":"US","MEAN_ELEMENT_THEORY":"SGP4","RA_OF_ASC_NODE":"300.2012","REF_FRAME":"TEME","REV_AT_EPOCH":"5783","SEMIMAJOR_AXIS":"6925.333","NORAD_CAT_ID":"47882","MEAN_MOTION":"15.06404964","MEAN_MOTION_DDOT":"0.0000000000000","BSTAR":"-0.00003180600000","OBJECT_TYPE":"PAYLOAD","CLASSIFICATION_TYPE":"U","PERIAPSIS":"546.060","TLE_LINE1":"1 47882U 21021Y   22079.84948551 -.00000755  00000-0 -31806-4 0  9990","APOAPSIS":"548.337","ARG_OF_PERICENTER":"74.9140","FILE":"3367488","ECCENTRICITY":"0.00016440","TLE_LINE2":"2 47882  53.0556 300.2012 0001644  74.9140 285.2031 15.06404964 57836","MEAN_ANOMALY":"285.2031","INCLINATION":"53.0556","OBJECT_NAME":"STARLINK-2340","DECAY_DATE":null,"CENTER_NAME":"EARTH","OBJECT_ID":"2021-021Y","EPHEMERIS_TYPE":"0","ELEMENT_SET_NO":"999"},{"MEAN_MOTION_DDOT":"0.0000000000000","NORAD_CAT_ID":"47883","MEAN_MOTION":"15.06406512","OBJECT_TYPE":"PAYLOAD","BSTAR":"-0.00018645000000","CLASSIFICATION_TYPE":"U","ARG_OF_PERICENTER":"68.7772","TLE_LINE1":"1 47883U 21021Z   22079.88771778 -.00003058  00000-0 -18645-3 0  9994","PERIAPSIS":"546.185","APOAPSIS":"548.202","TLE_LINE2":"2 47883  53.0538 305.0376 0001456  68.7772 291.3373 15.06406512 57777","FILE":"3367488","ECCENTRICITY":"0.00014560","OBJECT_NAME":"STARLINK-2342","DECAY_DATE":null,"MEAN_ANOMALY":"291.3373","INCLINATION":"53.0538","CENTER_NAME":"EARTH","ELEMENT_SET_NO":"999","EPHEMERIS_TYPE":"0","OBJECT_ID":"2021-021Z","RCS_SIZE":"LARGE","MEAN_MOTION_DOT":"-0.00003058","EPOCH":"2022-03-20T21:18:18.816192","PERIOD":"95.592","LAUNCH_DATE":"2021-03-14","TIME_SYSTEM":"UTC","SITE":"AFETR","GP_ID":"199268227","COUNTRY_CODE":"US","REV_AT_EPOCH":"5777","RA_OF_ASC_NODE":"305.0376","MEAN_ELEMENT_THEORY":"SGP4","REF_FRAME":"TEME","SEMIMAJOR_AXIS":"6925.329"},{"EPOCH":"2022-03-20T20:53:46.656096","MEAN_MOTION_DOT":"0.00001323","RCS_SIZE":"LARGE","PERIOD":"95.593","LAUNCH_DATE":"2021-03-14","GP_ID":"199266975","SITE":"AFETR","TIME_SYSTEM":"UTC","COUNTRY_CODE":"US","REF_FRAME":"TEME","RA_OF_ASC_NODE":"310.1144","MEAN_ELEMENT_THEORY":"SGP4","REV_AT_EPOCH":"5752","SEMIMAJOR_AXIS":"6925.366","NORAD_CAT_ID":"47884","MEAN_MOTION":"15.06394193","MEAN_MOTION_DDOT":"0.0000000000000","BSTAR":"0.00010772000000","OBJECT_TYPE":"PAYLOAD","CLASSIFICATION_TYPE":"U","APOAPSIS":"548.274","TLE_LINE1":"1 47884U 21021AA  22079.87067889  .00001323  00000-0  10772-3 0  9999","PERIAPSIS":"546.188","ARG_OF_PERICENTER":"65.8945","FILE":"3367488","ECCENTRICITY":"0.00015060","TLE_LINE2":"2 47884  53.0557 310.1144 0001506  65.8945 294.2201 15.06394193 57521","MEAN_ANOMALY":"294.2201","INCLINATION":"53.0557","DECAY_DATE":null,"OBJECT_NAME":"STARLINK-2343","CENTER_NAME":"EARTH","OBJECT_ID":"2021-021AA","EPHEMERIS_TYPE":"0","ELEMENT_SET_NO":"999"},{"LAUNCH_DATE":"2021-03-14","GP_ID":"199267225","SITE":"AFETR","TIME_SYSTEM":"UTC","EPOCH":"2022-03-20T20:45:08.987040","MEAN_MOTION_DOT":"0.00003909","RCS_SIZE":"LARGE","PERIOD":"95.592","SEMIMAJOR_AXIS":"6925.323","COUNTRY_CODE":"US","RA_OF_ASC_NODE":"315.1309","MEAN_ELEMENT_THEORY":"SGP4","REF_FRAME":"TEME","REV_AT_EPOCH":"5761","CLASSIFICATION_TYPE":"U","PERIAPSIS":"546.074","TLE_LINE1":"1 47885U 21021AB  22079.86468735  .00003909  00000-0  28109-3 0  9999","APOAPSIS":"548.303","ARG_OF_PERICENTER":"66.0507","NORAD_CAT_ID":"47885","MEAN_MOTION":"15.06408245","MEAN_MOTION_DDOT":"0.0000000000000","BSTAR":"0.00028109000000","OBJECT_TYPE":"PAYLOAD","CENTER_NAME":"EARTH","OBJECT_ID":"2021-021AB","EPHEMERIS_TYPE":"0","ELEMENT_SET_NO":"999","ECCENTRICITY":"0.00016090","FILE":"3367488","TLE_LINE2":"2 47885  53.0551 315.1309 0001609  66.0507 294.0651 15.06408245 57616","MEAN_ANOMALY":"294.0651","INCLINATION":"53.0551","OBJECT_NAME":"STARLINK-2344","DECAY_DATE":null},{"REF_FRAME":"TEME","MEAN_ELEMENT_THEORY":"SGP4","RA_OF_ASC_NODE":"305.1428","REV_AT_EPOCH":"5760","COUNTRY_CODE":"US","SEMIMAJOR_AXIS":"6925.357","PERIOD":"95.592","EPOCH":"2022-03-20T20:45:08.651808","MEAN_MOTION_DOT":"0.00000234","RCS_SIZE":"LARGE","GP_ID":"199267977","TIME_SYSTEM":"UTC","SITE":"AFETR","LAUNCH_DATE":"2021-03-14","MEAN_ANOMALY":"296.0849","INCLINATION":"53.0569","DECAY_DATE":null,"OBJECT_NAME":"STARLINK-2345","FILE":"3367488","ECCENTRICITY":"0.00016400","TLE_LINE2":"2 47886  53.0569 305.1428 0001640  64.0309 296.0849 15.06397275 57600","EPHEMERIS_TYPE":"0","OBJECT_ID":"2021-021AC","ELEMENT_SET_NO":"999","CENTER_NAME":"EARTH","BSTAR":"0.00003460700000","OBJECT_TYPE":"PAYLOAD","MEAN_MOTION":"15.06397275","NORAD_CAT_ID":"47886","MEAN_MOTION_DDOT":"0.0000000000000","APOAPSIS":"548.358","PERIAPSIS":"546.086","TLE_LINE1":"1 47886U 21021AC  22079.86468347  .00000234  00000-0  34607-4 0  9998","ARG_OF_PERICENTER":"64.0309","CLASSIFICATION_TYPE":"U"},{"CENTER_NAME":"EARTH","EPHEMERIS_TYPE":"0","OBJECT_ID":"2021-021AD","ELEMENT_SET_NO":"999","FILE":"3367488","ECCENTRICITY":"0.00016500","TLE_LINE2":"2 47887  53.0534 310.0270 0001650  72.1665 287.9504 15.06410063 57539","MEAN_ANOMALY":"287.9504","INCLINATION":"53.0534","DECAY_DATE":null,"OBJECT_NAME":"STARLINK-2346","CLASSIFICATION_TYPE":"U","APOAPSIS":"548.325","PERIAPSIS":"546.040","TLE_LINE1":"1 47887U 21021AD  22079.88911386  .00000647  00000-0  62312-4 0  9999","ARG_OF_PERICENTER":"72.1665","MEAN_MOTION":"15.06410063","NORAD_CAT_ID":"47887","MEAN_MOTION_DDOT":"0.0000000000000","BSTAR":"0.00006231200000","OBJECT_TYPE":"PAYLOAD","SEMIMAJOR_AXIS":"6925.318","COUNTRY_CODE":"US","REF_FRAME":"TEME","RA_OF_ASC_NODE":"310.0270","MEAN_ELEMENT_THEORY":"SGP4","REV_AT_EPOCH":"5753","LAUNCH_DATE":"2021-03-14","GP_ID":"199267728","SITE":"AFETR","TIME_SYSTEM":"UTC","EPOCH":"2022-03-20T21:20:19.437504","MEAN_MOTION_DOT":"0.00000647","RCS_SIZE":"LARGE","PERIOD":"95.592"},{"OBJECT_TYPE":"PAYLOAD","BSTAR":"0.00049893000000","MEAN_MOTION_DDOT":"0.0000000000000","MEAN_MOTION":"15.06423603","NORAD_CAT_ID":"47888","ARG_OF_PERICENTER":"56.8078","TLE_LINE1":"1 47888U 21021AE  22079.84581294  .00007162  00000-0  49893-3 0  9994","PERIAPSIS":"545.981","APOAPSIS":"548.301","CLASSIFICATION_TYPE":"U","OBJECT_NAME":"STARLINK-2348","DECAY_DATE":null,"MEAN_ANOMALY":"303.3072","INCLINATION":"53.0545","TLE_LINE2":"2 47888  53.0545 300.2230 0001675  56.8078 303.3072 15.06423603 57675","FILE":"3367488","ECCENTRICITY":"0.00016750","ELEMENT_SET_NO":"999","EPHEMERIS_TYPE":"0","OBJECT_ID":"2021-021AE","CENTER_NAME":"EARTH","PERIOD":"95.591","RCS_SIZE":"LARGE","EPOCH":"2022-03-20T20:17:58.238016","MEAN_MOTION_DOT":"0.00007162","SITE":"AFETR","TIME_SYSTEM":"UTC","GP_ID":"199266476","LAUNCH_DATE":"2021-03-14","REV_AT_EPOCH":"5767","MEAN_ELEMENT_THEORY":"SGP4","RA_OF_ASC_NODE":"300.2230","REF_FRAME":"TEME","COUNTRY_CODE":"US","SEMIMAJOR_AXIS":"6925.276"},{"PERIOD":"95.591","EPOCH":"2022-03-20T20:33:52.865568","MEAN_MOTION_DOT":"0.00005570","RCS_SIZE":"LARGE","GP_ID":"199266726","TIME_SYSTEM":"UTC","SITE":"AFETR","LAUNCH_DATE":"2021-03-14","MEAN_ELEMENT_THEORY":"SGP4","RA_OF_ASC_NODE":"300.1744","REF_FRAME":"TEME","REV_AT_EPOCH":"5772","COUNTRY_CODE":"US","SEMIMAJOR_AXIS":"6925.270","BSTAR":"0.00039224000000","OBJECT_TYPE":"PAYLOAD","MEAN_MOTION":"15.06425770","NORAD_CAT_ID":"47889","MEAN_MOTION_DDOT":"0.0000000000000","PERIAPSIS":"545.711","TLE_LINE1":"1 47889U 21021AF  22079.85686187  .00005570  00000-0  39224-3 0  9991","APOAPSIS":"548.558","ARG_OF_PERICENTER":"57.6088","CLASSIFICATION_TYPE":"U","INCLINATION":"53.0538","MEAN_ANOMALY":"302.5100","OBJECT_NAME":"STARLINK-2349","DECAY_DATE":null,"ECCENTRICITY":"0.00020550","FILE":"3367488","TLE_LINE2":"2 47889  53.0538 300.1744 0002055  57.6088 302.5100 15.06425770 57726","EPHEMERIS_TYPE":"0","OBJECT_ID":"2021-021AF","ELEMENT_SET_NO":"999","CENTER_NAME":"EARTH"}];
